STARLINK-36990
1 68068U 26041AE  26090.89351521  .00354472  00000+0  17114-2 0  9992
2 68068  53.1574 310.6161 0001908 119.9249 240.1964 15.81067677  4734
